[{"OBJECT_NAME":"STARLINK-35002","OBJECT_ID":"2025-184U","EPOCH":"2026-03-09T17:44:49.746624","MEAN_MOTION":15.05659354,"ECCENTRICITY":0.00013852,"INCLINATION":97.6007,"RA_OF_ASC_NODE":122.6359,"ARG_OF_PERICENTER":154.5242,"MEAN_ANOMALY":205.6053,"EPHEMERIS_TYPE":0,"CLASSIFICATION_TYPE":"U","NORAD_CAT_ID":65291,"ELEMENT_SET_NO":999,"REV_AT_EPOCH":3130,"BSTAR":0.00050234034,"MEAN_MOTION_DOT":7.197e-5,"MEAN_MOTION_DDOT":0},{"OBJECT_NAME":"OBJECT M","OBJECT_ID":"2017-042M","EPOCH":"2026-03-09T22:38:39.337440","MEAN_MOTION":15.07991931,"ECCENTRICITY":0.0005117,"INCLINATION":97.4139,"RA_OF_ASC_NODE":234.2602,"ARG_OF_PERICENTER":83.1417,"MEAN_ANOMALY":277.0393,"EPHEMERIS_TYPE":0,"CLASSIFICATION_TYPE":"U","NORAD_CAT_ID":42836,"ELEMENT_SET_NO":999,"REV_AT_EPOCH":47205,"BSTAR":0.00047182615,"MEAN_MOTION_DOT":7.201e-5,"MEAN_MOTION_DDOT":0}]
